[{"OBJECT_NAME":"ONEWEB-0557","OBJECT_ID":"2023-043N","EPOCH":"2026-03-09T23:16:03.055584","MEAN_MOTION":13.16593655,"ECCENTRICITY":5.894e-5,"INCLINATION":87.9005,"RA_OF_ASC_NODE":248.5151,"ARG_OF_PERICENTER":48.9089,"MEAN_ANOMALY":311.2093,"EPHEMERIS_TYPE":0,"CLASSIFICATION_TYPE":"U","NORAD_CAT_ID":56058,"ELEMENT_SET_NO":999,"REV_AT_EPOCH":14590,"BSTAR":1.14451e-5,"MEAN_MOTION_DOT":1.7e-7,"MEAN_MOTION_DDOT":0},{"OBJECT_NAME":"SL-16 DEB","OBJECT_ID":"2001-056K","EPOCH":"2026-03-09T19:54:09.844704","MEAN_MOTION":13.29052208,"ECCENTRICITY":0.0192862,"INCLINATION":99.4656,"RA_OF_ASC_NODE":17.2189,"ARG_OF_PERICENTER":25.5161,"MEAN_ANOMALY":28.9629,"EPHEMERIS_TYPE":0,"CLASSIFICATION_TYPE":"U","NORAD_CAT_ID":28436,"ELEMENT_SET_NO":999,"REV_AT_EPOCH":17547,"BSTAR":0.0001102409,"MEAN_MOTION_DOT":1.7e-7,"MEAN_MOTION_DDOT":0}]
